[{"OBJECT_NAME":"ONEWEB-0514","OBJECT_ID":"2022-138V","EPOCH":"2025-07-27T21:41:51.135648","MEAN_MOTION":13.19726845,"ECCENTRICITY":0.0001741,"INCLINATION":87.9231,"RA_OF_ASC_NODE":9.4198,"ARG_OF_PERICENTER":96.3584,"MEAN_ANOMALY":263.7747,"EPHEMERIS_TYPE":0,"CLASSIFICATION_TYPE":"U","NORAD_CAT_ID":54132,"ELEMENT_SET_NO":999,"REV_AT_EPOCH":13405,"BSTAR":-0.00011634,"MEAN_MOTION_DOT":-3.4e-7,"MEAN_MOTION_DDOT":0},{"OBJECT_NAME":"ONEWEB-0515","OBJECT_ID":"2022-138W","EPOCH":"2025-07-28T04:23:16.365120","MEAN_MOTION":13.20771622,"ECCENTRICITY":0.0001056,"INCLINATION":87.9299,"RA_OF_ASC_NODE":338.964,"ARG_OF_PERICENTER":82.2297,"MEAN_ANOMALY":277.8956,"EPHEMERIS_TYPE":0,"CLASSIFICATION_TYPE":"U","NORAD_CAT_ID":54133,"ELEMENT_SET_NO":999,"REV_AT_EPOCH":13740,"BSTAR":-9.4646e-5,"MEAN_MOTION_DOT":-2.6e-7,"MEAN_MOTION_DDOT":0},{"OBJECT_NAME":"ONEWEB-0516","OBJECT_ID":"2022-138X","EPOCH":"2025-07-27T21:05:27.656448","MEAN_MOTION":13.19725745,"ECCENTRICITY":0.0001909,"INCLINATION":87.9224,"RA_OF_ASC_NODE":9.4615,"ARG_OF_PERICENTER":89.5865,"MEAN_ANOMALY":270.5487,"EPHEMERIS_TYPE":0,"CLASSIFICATION_TYPE":"U","NORAD_CAT_ID":54134,"ELEMENT_SET_NO":999,"REV_AT_EPOCH":13405,"BSTAR":4.8783e-5,"MEAN_MOTION_DOT":3.2e-7,"MEAN_MOTION_DDOT":0},{"OBJECT_NAME":"ONEWEB-0517","OBJECT_ID":"2022-138Y","EPOCH":"2025-07-27T22:25:04.300320","MEAN_MOTION":13.19725725,"ECCENTRICITY":0.0001937,"INCLINATION":87.923,"RA_OF_ASC_NODE":9.4092,"ARG_OF_PERICENTER":103.4934,"MEAN_ANOMALY":256.6415,"EPHEMERIS_TYPE":0,"CLASSIFICATION_TYPE":"U","NORAD_CAT_ID":54135,"ELEMENT_SET_NO":999,"REV_AT_EPOCH":13406,"BSTAR":0.00011357,"MEAN_MOTION_DOT":5.8e-7,"MEAN_MOTION_DDOT":0},{"OBJECT_NAME":"ONEWEB-0518","OBJECT_ID":"2022-138Z","EPOCH":"2025-07-27T21:03:11.918592","MEAN_MOTION":13.19725061,"ECCENTRICITY":0.0002014,"INCLINATION":87.9228,"RA_OF_ASC_NODE":9.458,"ARG_OF_PERICENTER":91.3866,"MEAN_ANOMALY":268.7498,"EPHEMERIS_TYPE":0,"CLASSIFICATION_TYPE":"U","NORAD_CAT_ID":54136,"ELEMENT_SET_NO":999,"REV_AT_EPOCH":13405,"BSTAR":4.4319e-5,"MEAN_MOTION_DOT":3.1e-7,"MEAN_MOTION_DDOT":0},{"OBJECT_NAME":"ONEWEB-0519","OBJECT_ID":"2022-138AA","EPOCH":"2025-07-27T21:39:34.816320","MEAN_MOTION":13.19725687,"ECCENTRICITY":0.0001969,"INCLINATION":87.923,"RA_OF_ASC_NODE":9.4077,"ARG_OF_PERICENTER":100.6575,"MEAN_ANOMALY":259.4779,"EPHEMERIS_TYPE":0,"CLASSIFICATION_TYPE":"U","NORAD_CAT_ID":54137,"ELEMENT_SET_NO":999,"REV_AT_EPOCH":13406,"BSTAR":-6.6188e-6,"MEAN_MOTION_DOT":1.0e-7,"MEAN_MOTION_DDOT":0},{"OBJECT_NAME":"ONEWEB-0520","OBJECT_ID":"2022-138AB","EPOCH":"2025-07-27T20:40:26.611104","MEAN_MOTION":13.19725152,"ECCENTRICITY":0.0002141,"INCLINATION":87.923,"RA_OF_ASC_NODE":9.4198,"ARG_OF_PERICENTER":89.1068,"MEAN_ANOMALY":271.031,"EPHEMERIS_TYPE":0,"CLASSIFICATION_TYPE":"U","NORAD_CAT_ID":54138,"ELEMENT_SET_NO":999,"REV_AT_EPOCH":13404,"BSTAR":0.00010527,"MEAN_MOTION_DOT":5.5e-7,"MEAN_MOTION_DDOT":0},{"OBJECT_NAME":"ONEWEB-0521","OBJECT_ID":"2022-138AC","EPOCH":"2025-07-27T21:28:11.939232","MEAN_MOTION":13.19726486,"ECCENTRICITY":0.0001779,"INCLINATION":87.9228,"RA_OF_ASC_NODE":9.3998,"ARG_OF_PERICENTER":102.2287,"MEAN_ANOMALY":257.9045,"EPHEMERIS_TYPE":0,"CLASSIFICATION_TYPE":"U","NORAD_CAT_ID":54139,"ELEMENT_SET_NO":999,"REV_AT_EPOCH":13399,"BSTAR":-2.2674e-5,"MEAN_MOTION_DOT":4.0e-8,"MEAN_MOTION_DDOT":0},{"OBJECT_NAME":"ONEWEB-0522","OBJECT_ID":"2022-138AD","EPOCH":"2025-07-28T04:15:19.933920","MEAN_MOTION":13.19726687,"ECCENTRICITY":0.0001881,"INCLINATION":87.9229,"RA_OF_ASC_NODE":9.3449,"ARG_OF_PERICENTER":91.3864,"MEAN_ANOMALY":268.7484,"EPHEMERIS_TYPE":0,"CLASSIFICATION_TYPE":"U","NORAD_CAT_ID":54140,"ELEMENT_SET_NO":999,"REV_AT_EPOCH":13494,"BSTAR":9.3868e-5,"MEAN_MOTION_DOT":5.1e-7,"MEAN_MOTION_DDOT":0},{"OBJECT_NAME":"ONEWEB-0523","OBJECT_ID":"2022-138AE","EPOCH":"2025-07-27T20:48:44.555040","MEAN_MOTION":13.20771151,"ECCENTRICITY":0.0001145,"INCLINATION":87.9291,"RA_OF_ASC_NODE":339.0566,"ARG_OF_PERICENTER":116.4147,"MEAN_ANOMALY":243.7104,"EPHEMERIS_TYPE":0,"CLASSIFICATION_TYPE":"U","NORAD_CAT_ID":54141,"ELEMENT_SET_NO":999,"REV_AT_EPOCH":13649,"BSTAR":0.00011663,"MEAN_MOTION_DOT":6.0e-7,"MEAN_MOTION_DDOT":0},{"OBJECT_NAME":"ONEWEB-0524","OBJECT_ID":"2022-138AF","EPOCH":"2025-07-27T20:32:49.501536","MEAN_MOTION":13.20770765,"ECCENTRICITY":0.0001303,"INCLINATION":87.9288,"RA_OF_ASC_NODE":339.0604,"ARG_OF_PERICENTER":70.5005,"MEAN_ANOMALY":289.6269,"EPHEMERIS_TYPE":0,"CLASSIFICATION_TYPE":"U","NORAD_CAT_ID":54142,"ELEMENT_SET_NO":999,"REV_AT_EPOCH":13649,"BSTAR":0.00010083,"MEAN_MOTION_DOT":5.4e-7,"MEAN_MOTION_DDOT":0},{"OBJECT_NAME":"ONEWEB-0525","OBJECT_ID":"2022-138AG","EPOCH":"2025-07-27T21:25:55.632000","MEAN_MOTION":13.19726762,"ECCENTRICITY":0.0002113,"INCLINATION":87.9231,"RA_OF_ASC_NODE":9.4214,"ARG_OF_PERICENTER":89.6913,"MEAN_ANOMALY":270.4461,"EPHEMERIS_TYPE":0,"CLASSIFICATION_TYPE":"U","NORAD_CAT_ID":54143,"ELEMENT_SET_NO":999,"REV_AT_EPOCH":13405,"BSTAR":-4.322e-5,"MEAN_MOTION_DOT":-4.0e-8,"MEAN_MOTION_DDOT":0},{"OBJECT_NAME":"ONEWEB-0526","OBJECT_ID":"2022-138AH","EPOCH":"2025-07-28T00:02:53.181024","MEAN_MOTION":13.19725464,"ECCENTRICITY":0.0001897,"INCLINATION":87.9228,"RA_OF_ASC_NODE":9.3877,"ARG_OF_PERICENTER":91.091,"MEAN_ANOMALY":269.044,"EPHEMERIS_TYPE":0,"CLASSIFICATION_TYPE":"U","NORAD_CAT_ID":54144,"ELEMENT_SET_NO":999,"REV_AT_EPOCH":13491,"BSTAR":-0.00011084,"MEAN_MOTION_DOT":-3.1e-7,"MEAN_MOTION_DDOT":0},{"OBJECT_NAME":"ONEWEB-0529","OBJECT_ID":"2022-138AJ","EPOCH":"2025-07-27T22:18:15.796800","MEAN_MOTION":13.19724989,"ECCENTRICITY":0.0002054,"INCLINATION":87.9223,"RA_OF_ASC_NODE":9.445,"ARG_OF_PERICENTER":89.0217,"MEAN_ANOMALY":271.1151,"EPHEMERIS_TYPE":0,"CLASSIFICATION_TYPE":"U","NORAD_CAT_ID":54145,"ELEMENT_SET_NO":999,"REV_AT_EPOCH":13405,"BSTAR":7.0218e-5,"MEAN_MOTION_DOT":4.1e-7,"MEAN_MOTION_DDOT":0},{"OBJECT_NAME":"ONEWEB-0531","OBJECT_ID":"2022-138AK","EPOCH":"2025-07-27T22:01:28.408224","MEAN_MOTION":13.20770836,"ECCENTRICITY":9.79e-5,"INCLINATION":87.9286,"RA_OF_ASC_NODE":339.0418,"ARG_OF_PERICENTER":102.3134,"MEAN_ANOMALY":257.8109,"EPHEMERIS_TYPE":0,"CLASSIFICATION_TYPE":"U","NORAD_CAT_ID":54146,"ELEMENT_SET_NO":999,"REV_AT_EPOCH":13650,"BSTAR":6.151e-5,"MEAN_MOTION_DOT":3.8e-7,"MEAN_MOTION_DDOT":0},{"OBJECT_NAME":"ONEWEB-0535","OBJECT_ID":"2022-138AL","EPOCH":"2025-07-27T21:16:50.953440","MEAN_MOTION":13.19725683,"ECCENTRICITY":0.0001505,"INCLINATION":87.9228,"RA_OF_ASC_NODE":9.4063,"ARG_OF_PERICENTER":101.4484,"MEAN_ANOMALY":258.6818,"EPHEMERIS_TYPE":0,"CLASSIFICATION_TYPE":"U","NORAD_CAT_ID":54147,"ELEMENT_SET_NO":999,"REV_AT_EPOCH":13406,"BSTAR":-8.8655e-5,"MEAN_MOTION_DOT":-2.3e-7,"MEAN_MOTION_DDOT":0},{"OBJECT_NAME":"ONEWEB-0536","OBJECT_ID":"2022-138AM","EPOCH":"2025-07-28T03:10:32.571552","MEAN_MOTION":13.20771083,"ECCENTRICITY":8.38e-5,"INCLINATION":87.9287,"RA_OF_ASC_NODE":339.0446,"ARG_OF_PERICENTER":90.2432,"MEAN_ANOMALY":269.8797,"EPHEMERIS_TYPE":0,"CLASSIFICATION_TYPE":"U","NORAD_CAT_ID":54148,"ELEMENT_SET_NO":999,"REV_AT_EPOCH":13739,"BSTAR":1.6176e-5,"MEAN_MOTION_DOT":2.0e-7,"MEAN_MOTION_DDOT":0}]
