ONEWEB-0514             
1 54132U 22138V   25208.90406407 -.00000034  00000+0 -11634-3 0  9994
2 54132  87.9231   9.4198 0001741  96.3584 263.7747 13.19726845134051
ONEWEB-0515             
1 54133U 22138W   25209.18282830 -.00000026  00000+0 -94646-4 0  9994
2 54133  87.9299 338.9640 0001056  82.2297 277.8956 13.20771622137407
ONEWEB-0516             
1 54134U 22138X   25208.87879232  .00000032  00000+0  48783-4 0  9994
2 54134  87.9224   9.4615 0001909  89.5865 270.5487 13.19725745134056
ONEWEB-0517             
1 54135U 22138Y   25208.93407755  .00000058  00000+0  11357-3 0  9993
2 54135  87.9230   9.4092 0001937 103.4934 256.6415 13.19725725134062
ONEWEB-0518             
1 54136U 22138Z   25208.87722128  .00000031  00000+0  44319-4 0  9997
2 54136  87.9228   9.4580 0002014  91.3866 268.7498 13.19725061134055
ONEWEB-0519             
1 54137U 22138AA  25208.90248630  .00000010  00000+0 -66188-5 0  9990
2 54137  87.9230   9.4077 0001969 100.6575 259.4779 13.19725687134063
ONEWEB-0520             
1 54138U 22138AB  25208.86141911  .00000055  00000+0  10527-3 0  9992
2 54138  87.9230   9.4198 0002141  89.1068 271.0310 13.19725152134045
ONEWEB-0521             
1 54139U 22138AC  25208.89458263  .00000004  00000+0 -22674-4 0  9999
2 54139  87.9228   9.3998 0001779 102.2287 257.9045 13.19726486133998
ONEWEB-0522             
1 54140U 22138AD  25209.17731405  .00000051  00000+0  93868-4 0  9999
2 54140  87.9229   9.3449 0001881  91.3864 268.7484 13.19726687134941
ONEWEB-0523             
1 54141U 22138AE  25208.86718235  .00000060  00000+0  11663-3 0  9993
2 54141  87.9291 339.0566 0001145 116.4147 243.7104 13.20771151136492
ONEWEB-0524             
1 54142U 22138AF  25208.85612849  .00000054  00000+0  10083-3 0  9995
2 54142  87.9288 339.0604 0001303  70.5005 289.6269 13.20770765136492
ONEWEB-0525             
1 54143U 22138AG  25208.89300500 -.00000004  00000+0 -43220-4 0  9995
2 54143  87.9231   9.4214 0002113  89.6913 270.4461 13.19726762134053
ONEWEB-0526             
1 54144U 22138AH  25209.00200441 -.00000031  00000+0 -11084-3 0  9995
2 54144  87.9228   9.3877 0001897  91.0910 269.0440 13.19725464134910
ONEWEB-0529             
1 54145U 22138AJ  25208.92934950  .00000041  00000+0  70218-4 0  9999
2 54145  87.9223   9.4450 0002054  89.0217 271.1151 13.19724989134056
ONEWEB-0531             
1 54146U 22138AK  25208.91768991  .00000038  00000+0  61510-4 0  9990
2 54146  87.9286 339.0418 0000979 102.3134 257.8109 13.20770836136503
ONEWEB-0535             
1 54147U 22138AL  25208.88670085 -.00000023  00000+0 -88655-4 0  9998
2 54147  87.9228   9.4063 0001505 101.4484 258.6818 13.19725683134061
ONEWEB-0536             
1 54148U 22138AM  25209.13232143  .00000020  00000+0  16176-4 0  9991
2 54148  87.9287 339.0446 0000838  90.2432 269.8797 13.20771083137396
